NAVSTAR 43 (USA 132)    
1 24876U 97035A   21040.26550327 -.00000017  00000-0  00000-0 0  9997
2 24876  55.4664 174.9118 0047263  57.5578 302.8502  2.00562441172766
NAVSTAR 47 (USA 150)    
1 26360U 00025A   21040.46899560 -.00000036  00000-0  00000-0 0  9998
2 26360  53.6815  99.3106 0058079 165.5220 323.0844  2.00563362152082
NAVSTAR 48 (USA 151)    
1 26407U 00040A   21040.53638253 -.00000007  00000-0  00000-0 0  9993
2 26407  55.8159 292.8041 0181935 282.3961 215.8096  2.00564361150765
NAVSTAR 51 (USA 166)    
1 27663U 03005A   21040.42430487 -.00000006  00000-0  00000-0 0  9998
2 27663  55.8686 292.6029 0120107  36.4008 146.3286  2.00566863132121
NAVSTAR 52 (USA 168)    
1 27704U 03010A   21040.58597466 -.00000060  00000-0  00000-0 0  9998
2 27704  54.7828  43.3230 0244354 291.3452 222.2612  2.00557902130921
NAVSTAR 53 (USA 175)    
1 28129U 03058A   21040.45725678 -.00000037  00000-0  00000-0 0  9990
2 28129  53.4918 101.9813 0071522 299.5153  59.8347  2.00570669125603
NAVSTAR 54 (USA 177)    
1 28190U 04009A   21040.09580149 -.00000100  00000-0  00000-0 0  9998
2 28190  56.2269 353.4626 0087879 102.1205 357.8464  2.00570458123757
NAVSTAR 56 (USA 180)    
1 28474U 04045A   21040.27280689 -.00000057  00000-0  00000-0 0  9990
2 28474  55.1204  43.2920 0205823 271.2052 232.5007  2.00571062119242
NAVSTAR 57 (USA 183)    
1 28874U 05038A   21040.18591214 -.00000100  00000-0  00000-0 0  9995
2 28874  56.3162 350.8650 0137719 269.4140 276.4474  2.00579032112641
NAVSTAR 58 (USA 190)    
1 29486U 06042A   21040.27245193  .00000063  00000-0  00000-0 0  9990
2 29486  54.8000 228.9165 0099314  12.7154 155.8750  2.00555924105231
NAVSTAR 59 (USA 192)    
1 29601U 06052A   21039.98091392 -.00000004  00000-0  00000-0 0  9992
2 29601  55.8629 291.5434 0081036  66.9381 293.9769  2.00577192104210
NAVSTAR 61 (USA 199)    
1 32384U 07062A   21040.29908316 -.00000100  00000-0  00000-0 0  9992
2 32384  56.4194 351.5622 0013071 129.1902   3.1102  2.00562524 96324
NAVSTAR 62 (USA 201)    
1 32711U 08012A   21040.20533070  .00000062  00000-0  00000-0 0  9990
2 32711  54.5508 227.9673 0145719 225.7820 133.0240  2.00571204 94582
NAVSTAR 64 (USA 206)    
1 35752U 09043A   21040.18592560 -.00000037  00000-0  00000-0 0  9992
2 35752  54.7257 105.4454 0058065  49.2279 318.0337  2.00547028 84177
NAVSTAR 65 (USA 213)    
1 36585U 10022A   21040.17239278  .00000005  00000-0  00000-0 0  9993
2 36585  55.1365 287.4023 0095996  53.0902  52.0790  2.00563866 78405
NAVSTAR 66 (USA 232)    
1 37753U 11036A   21040.15539314 -.00000048  00000-0  00000-0 0  9997
2 37753  56.3361  47.9715 0101934  45.9777 134.5895  2.00562148 70089
NAVSTAR 67 (USA 239)    
1 38833U 12053A   21040.38536636  .00000053  00000-0  00000-0 0  9991
2 38833  53.5974 223.5778 0107572  40.8314 319.9717  2.00569715 60363
NAVSTAR 68 (USA 242)    
1 39166U 13023A   21040.25061997 -.00000100  00000-0  00000-0 0  9992
2 39166  55.9659 347.4233 0089145  31.6539 328.8701  2.00563512 56695
NAVSTAR 69 (USA 248)    
1 39533U 14008A   21040.24995962  .00000060  00000-0  00000-0 0  9995
2 39533  53.7051 229.0416 0049051 199.3744 160.4521  2.00554221 50517
NAVSTAR 70 (USA 251)    
1 39741U 14026A   21040.02858174 -.00000048  00000-0  00000-0 0  9992
2 39741  56.3065  47.5036 0025092 295.4388  64.3385  2.00560248 49349
NAVSTAR 71 (USA 256)    
1 40105U 14045A   21038.12249070 -.00000004  00000-0  00000-0 0  9998
2 40105  54.6124 166.5789 0017447 105.3481 254.8095  2.00575186 46873
NAVSTAR 72 (USA 258)    
1 40294U 14068A   21039.99393164 -.00000038  00000-0  00000-0 0  9999
2 40294  55.4738 107.4820 0030945  46.3672 313.9438  2.00565491 46018
NAVSTAR 73 (USA 260)    
1 40534U 15013A   21039.63120966  .00000008  00000-0  00000-0 0  9992
2 40534  54.0463 285.1281 0056471  13.1096 347.1033  2.00553993 42621
NAVSTAR 74 (USA 262)    
1 40730U 15033A   21040.29570287 -.00000100  00000-0  00000-0 0  9995
2 40730  55.4769 346.4840 0061763 356.0101   3.9336  2.00578034 40805
NAVSTAR 75 (USA 265)    
1 41019U 15062A   21040.33776056 -.00000035  00000-0  00000-0 0  9992
2 41019  55.4678 107.3001 0065821 213.0341 146.6087  2.00563755 38646
NAVSTAR 76 (USA 266)    
1 41328U 16007A   21039.93087994 -.00000026  00000-0  00000-0 0  9995
2 41328  54.8425 167.0541 0047062 222.3092 137.2856  2.00567662 36691
NAVSTAR 77 (USA 289)    
1 43873U 18109A   21040.58434104 -.00000026  00000-0  00000-0 0  9999
2 43873  55.0239 169.3433 0011587 198.2860 170.1759  2.00572962 15937
NAVSTAR 78 (USA 293)    
1 44506U 19056A   21040.46869409 -.00000051  00000-0  00000-0 0  9990
2 44506  55.4007  48.7237 0011954 185.1767 355.9298  2.00562130 10885
NAVSTAR 79 (USA 304)    
1 45854U 20041A   21040.29938932 -.00000036  00000-0  00000-0 0  9995
2 45854  55.1805 105.9889 0009207 146.9573 213.1568  2.00567183  4849
